<?xml version='1.0' encoding='UTF-8'?>
<osm version='0.6' generator='JOSM'>
  <node id='-26284' action='modify' visible='true' lat='5.83361021309' lon='-73.03522378474' />
  <node id='-26285' action='modify' visible='true' lat='5.83310325751' lon='-73.03620751326' />
  <node id='-26286' action='modify' visible='true' lat='5.83309521466' lon='-73.033911838' />
  <node id='-26287' action='modify' visible='true' lat='5.83338073111' lon='-73.03391062702' />
  <node id='-26288' action='modify' visible='true' lat='5.83335940048' lon='-73.03620859813' />
  <node id='-26289' action='modify' visible='true' lat='5.83363422122' lon='-73.03620976211' />
  <node id='-26290' action='modify' visible='true' lat='5.83363422816' lon='-73.03390955184' />
  <node id='-26291' action='modify' visible='true' lat='5.83389835315' lon='-73.03390843159' />
  <node id='-26292' action='modify' visible='true' lat='5.83390108199' lon='-73.03621089238' />
  <node id='-26293' action='modify' visible='true' lat='5.83418389603' lon='-73.03621209022' />
  <node id='-26294' action='modify' visible='true' lat='5.83417325241' lon='-73.03390726564' />
  <node id='-26295' action='modify' visible='true' lat='5.83444803895' lon='-73.03390610016' />
  <node id='-26296' action='modify' visible='true' lat='5.83444539752' lon='-73.03621319779' />
  <node id='-26297' action='modify' visible='true' lat='5.83474150765' lon='-73.03621445194' />
  <node id='-26298' action='modify' visible='true' lat='5.83470696212' lon='-73.03390500197' />
  <node id='-26299' action='modify' visible='true' lat='5.83499238768' lon='-73.03390379137' />
  <node id='-26300' action='modify' visible='true' lat='5.83500309882' lon='-73.03621555989' />
  <node id='-26305' action='modify' visible='true' lat='5.83310210854' lon='-73.03587955965' />
  <node id='-26306' action='modify' visible='true' lat='5.83310095956' lon='-73.03555160604' />
  <node id='-26307' action='modify' visible='true' lat='5.83309981058' lon='-73.03522365243' />
  <node id='-26308' action='modify' visible='true' lat='5.8330986616' lon='-73.03489569882' />
  <node id='-26309' action='modify' visible='true' lat='5.83309751262' lon='-73.03456774522' />
  <node id='-26310' action='modify' visible='true' lat='5.83309636364' lon='-73.03423979161' />
  <node id='-26311' action='modify' visible='true' lat='5.83500156865' lon='-73.03588530724' />
  <node id='-26312' action='modify' visible='true' lat='5.83500003849' lon='-73.0355550546' />
  <node id='-26313' action='modify' visible='true' lat='5.83499850833' lon='-73.03522480195' />
  <node id='-26314' action='modify' visible='true' lat='5.83499697817' lon='-73.03489454931' />
  <node id='-26315' action='modify' visible='true' lat='5.834995448' lon='-73.03456429666' />
  <node id='-26316' action='modify' visible='true' lat='5.83499391784' lon='-73.03423404402' />
  <way id='-7169' action='modify' visible='true'>
    <nd ref='-26284' />
    <nd ref='-26285' />
    <nd ref='-26305' />
    <nd ref='-26306' />
    <nd ref='-26307' />
    <nd ref='-26308' />
    <nd ref='-26309' />
    <nd ref='-26310' />
    <nd ref='-26286' />
    <nd ref='-26287' />
    <nd ref='-26288' />
    <nd ref='-26289' />
    <nd ref='-26290' />
    <nd ref='-26291' />
    <nd ref='-26292' />
    <nd ref='-26293' />
    <nd ref='-26294' />
    <nd ref='-26295' />
    <nd ref='-26296' />
    <nd ref='-26297' />
    <nd ref='-26298' />
    <nd ref='-26299' />
    <nd ref='-26316' />
    <nd ref='-26315' />
    <nd ref='-26314' />
    <nd ref='-26313' />
    <nd ref='-26312' />
    <nd ref='-26311' />
    <nd ref='-26300' />
    <nd ref='-26284' />
  </way>
</osm>
